NUSAT-48 (HENRIETTA LE*)
1 60498U 24149AG  26068.80506098  .00012988  00000+0  45212-3 0  9999
2 60498  97.3923 150.8264 0002754 263.3026  96.7901 15.29812597 86946
STARLINK-36072          
1 66856U 25281J   26068.18350921  .00017809  00000+0  65490-3 0  9991
2 66856  42.9959 346.7232 0000769 265.3751  94.7013 15.27591238 16104
